STARLINK-33804          
1 63511U 25071U   25110.91668981 -.01097233  00000+0 -80379-2 0  9993
2 63511  53.1553 207.3420 0001145  58.9527  71.9432 15.75084938  2889
STARLINK-33751          
1 63512U 25071V   25110.91668981 -.01089121  00000+0 -80010-2 0  9993
2 63512  53.1553 207.3383 0000931  76.1064  56.8004 15.75003539  3233
STARLINK-33750          
1 63513U 25071W   25110.91668981 -.00912482  00000+0 -67300-2 0  9995
2 63513  53.1553 207.3339 0000837  68.7076  66.2030 15.74876966  3235
STARLINK-33786          
1 63514U 25071X   25110.91668981 -.00865933  00000+0 -63743-2 0  9991
2 63514  53.1554 207.3294 0000737  41.5250  95.3753 15.74792152  2877
STARLINK-33796          
1 63515U 25071Y   25110.91668981 -.00641867  00000+0 -46329-2 0  9991
2 63515  53.1561 207.3219 0000887  71.9221  68.9181 15.74624640  3254
STARLINK-33785          
1 63516U 25071Z   25110.91668981 -.00781923  00000+0 -57104-2 0  9993
2 63516  53.1556 207.3263 0000928  50.7318  88.1138 15.74739472  3230
STARLINK-33803          
1 63517U 25071AA  25110.91668981  .00145157  00000+0  89318-3 0  9998
2 63517  53.1543 207.3149 0001126  53.0655  91.0270 15.76283212  3251
STARLINK-33807          
1 63518U 25071AB  25110.91668981 -.00277326  00000+0 -19387-2 0  9993
2 63518  53.1562 207.3095 0000978  59.5038  87.2452 15.74348443  3258
STARLINK-33787          
1 63519U 25071AC  25110.91668981 -.00339536  00000+0 -23880-2 0  9999
2 63519  53.1560 207.3136 0001025  51.3434  93.4639 15.74386236  2883
STARLINK-11669 [DTC]    
1 63548U 25075A   25110.91668981 -.00890736  00000+0 -36219-2 0  9999
2 63548  43.0048 303.0554 0002073 271.0819  97.9011 15.87301299  2449
STARLINK-11665 [DTC]    
1 63549U 25075B   25110.91668981 -.00890107  00000+0 -36039-2 0  9992
2 63549  43.0050 303.0512 0002080 274.5247  96.0418 15.87385343  2441
STARLINK-11667 [DTC]    
1 63550U 25075C   25110.91668981 -.00879845  00000+0 -35336-2 0  9999
2 63550  43.0050 303.0452 0001900 266.3451 106.6273 15.87525598  2447
STARLINK-11695 [DTC]    
1 63551U 25075D   25110.91668981 -.00884952  00000+0 -35293-2 0  9997
2 63551  43.0049 303.0389 0001956 269.7541 105.6609 15.87676590  2444
STARLINK-11685 [DTC]    
1 63552U 25075E   25110.91668981 -.00882212  00000+0 -34999-2 0  9997
2 63552  43.0047 303.0348 0002100 272.2464 104.9509 15.87773690  2443
STARLINK-11697 [DTC]    
1 63553U 25075F   25110.91668981 -.00880013  00000+0 -34700-2 0  9995
2 63553  43.0050 303.0296 0001983 271.1066 108.1283 15.87891047  2446
STARLINK-11680 [DTC]    
1 63554U 25075G   25110.91668981 -.00879189  00000+0 -34392-2 0  9995
2 63554  43.0047 303.0228 0002128 273.1613 108.6109 15.88046216  2443
STARLINK-11687 [DTC]    
1 63555U 25075H   25110.91668981 -.00876560  00000+0 -34117-2 0  9991
2 63555  43.0050 303.0187 0002030 270.8207 112.6814 15.88141226  2442
STARLINK-11626 [DTC]    
1 63556U 25075J   25110.91668981 -.00867114  00000+0 -33496-2 0  9996
2 63556  43.0045 303.0129 0001994 269.7032 116.0471 15.88269532  2442
STARLINK-11668 [DTC]    
1 63557U 25075K   25110.91668981 -.00855780  00000+0 -32855-2 0  9991
2 63557  43.0047 303.0084 0001997 266.0135 121.6107 15.88365911  2459
STARLINK-11657 [DTC]    
1 63558U 25075L   25110.91668981 -.00871167  00000+0 -33194-2 0  9996
2 63558  43.0047 303.0008 0002079 274.1492 116.2085 15.88549290  2453
STARLINK-11606 [DTC]    
1 63559U 25075M   25110.91668981 -.00867896  00000+0 -32853-2 0  9992
2 63559  43.0048 302.9962 0002167 274.8918 117.5571 15.88670539  2455
STARLINK-11592 [DTC]    
1 63560U 25075N   25110.91668981 -.00865470  00000+0 -32647-2 0  9991
2 63560  43.0046 302.9923 0002198 276.3698 117.3809 15.88733590  2457
STARLINK-32953          
1 63561U 25075P   25110.91668981 -.01027296  00000+0 -40499-2 0  9993
2 63561  43.0041 302.9877 0001927 262.2398 133.4619 15.88236205  2461
STARLINK-32951          
1 63562U 25075Q   25110.91668981 -.01041107  00000+0 -40726-2 0  9994
2 63562  43.0040 302.9735 0002321 268.5766 132.5174 15.88417099  2469
STARLINK-32958          
1 63563U 25075R   25110.91668981 -.01030877  00000+0 -40529-2 0  9998
2 63563  43.0041 302.9826 0001948 263.4338 134.1268 15.88298505  2466
STARLINK-32928          
1 63564U 25075S   25110.91668981 -.01032614  00000+0 -40487-2 0  9993
2 63564  43.0043 302.9776 0001900 264.6337 134.7824 15.88356908  2469
STARLINK-32687          
1 63565U 25075T   25110.91668981 -.01051182  00000+0 -41049-2 0  9990
2 63565  43.0044 302.9691 0001966 262.1892 140.8187 15.88479268  2463
STARLINK-32950          
1 63566U 25075U   25110.91668981  .00509036  00000+0  15478-2 0  9991
2 63566  43.0043 302.9608 0002859 262.1915 143.9475 15.89999646  2461
STARLINK-32954          
1 63567U 25075V   25110.91668981 -.01063341  00000+0 -41188-2 0  9996
2 63567  43.0043 302.9557 0002141 268.7495 139.5974 15.88665561  2464
STARLINK-32940          
1 63568U 25075W   25110.91668981 -.01066871  00000+0 -41455-2 0  9995
2 63568  43.0045 302.9591 0001948 265.0998 141.8914 15.88614291  2461
