OBJECT_NAME,OBJECT_ID,EPOCH,MEAN_MOTION,ECCENTRICITY,INCLINATION,RA_OF_ASC_NODE,ARG_OF_PERICENTER,MEAN_ANOMALY,EPHEMERIS_TYPE,CLASSIFICATION_TYPE,NORAD_CAT_ID,ELEMENT_SET_NO,REV_AT_EPOCH,BSTAR,MEAN_MOTION_DOT,MEAN_MOTION_DDOT
STARLINK-33804,2025-071U,2025-04-20T22:00:01.999584,15.75084938,.0001145,53.1553,207.3420,58.9527,71.9432,0,U,63511,999,288,-.80379E-2,-.1097233E-1,0
STARLINK-33751,2025-071V,2025-04-20T22:00:01.999584,15.75003539,.0000931,53.1553,207.3383,76.1064,56.8004,0,U,63512,999,323,-.8001E-2,-.1089121E-1,0
STARLINK-33750,2025-071W,2025-04-20T22:00:01.999584,15.74876966,.0000837,53.1553,207.3339,68.7076,66.2030,0,U,63513,999,323,-.673E-2,-.912482E-2,0
STARLINK-33786,2025-071X,2025-04-20T22:00:01.999584,15.74792152,.0000737,53.1554,207.3294,41.5250,95.3753,0,U,63514,999,287,-.63743E-2,-.865933E-2,0
STARLINK-33796,2025-071Y,2025-04-20T22:00:01.999584,15.74624640,.0000887,53.1561,207.3219,71.9221,68.9181,0,U,63515,999,325,-.46329E-2,-.641867E-2,0
STARLINK-33785,2025-071Z,2025-04-20T22:00:01.999584,15.74739472,.0000928,53.1556,207.3263,50.7318,88.1138,0,U,63516,999,323,-.57104E-2,-.781923E-2,0
STARLINK-33803,2025-071AA,2025-04-20T22:00:01.999584,15.76283212,.0001126,53.1543,207.3149,53.0655,91.0270,0,U,63517,999,325,.89318E-3,.145157E-2,0
STARLINK-33807,2025-071AB,2025-04-20T22:00:01.999584,15.74348443,.0000978,53.1562,207.3095,59.5038,87.2452,0,U,63518,999,325,-.19387E-2,-.277326E-2,0
STARLINK-33787,2025-071AC,2025-04-20T22:00:01.999584,15.74386236,.0001025,53.1560,207.3136,51.3434,93.4639,0,U,63519,999,288,-.2388E-2,-.339536E-2,0
STARLINK-11669 [DTC],2025-075A,2025-04-20T22:00:01.999584,15.87301299,.0002073,43.0048,303.0554,271.0819,97.9011,0,U,63548,999,244,-.36219E-2,-.890736E-2,0
STARLINK-11665 [DTC],2025-075B,2025-04-20T22:00:01.999584,15.87385343,.000208,43.0050,303.0512,274.5247,96.0418,0,U,63549,999,244,-.36039E-2,-.890107E-2,0
STARLINK-11667 [DTC],2025-075C,2025-04-20T22:00:01.999584,15.87525598,.00019,43.0050,303.0452,266.3451,106.6273,0,U,63550,999,244,-.35336E-2,-.879845E-2,0
STARLINK-11695 [DTC],2025-075D,2025-04-20T22:00:01.999584,15.87676590,.0001956,43.0049,303.0389,269.7541,105.6609,0,U,63551,999,244,-.35293E-2,-.884952E-2,0
STARLINK-11685 [DTC],2025-075E,2025-04-20T22:00:01.999584,15.87773690,.00021,43.0047,303.0348,272.2464,104.9509,0,U,63552,999,244,-.34999E-2,-.882212E-2,0
STARLINK-11697 [DTC],2025-075F,2025-04-20T22:00:01.999584,15.87891047,.0001983,43.0050,303.0296,271.1066,108.1283,0,U,63553,999,244,-.347E-2,-.880013E-2,0
STARLINK-11680 [DTC],2025-075G,2025-04-20T22:00:01.999584,15.88046216,.0002128,43.0047,303.0228,273.1613,108.6109,0,U,63554,999,244,-.34392E-2,-.879189E-2,0
STARLINK-11687 [DTC],2025-075H,2025-04-20T22:00:01.999584,15.88141226,.000203,43.0050,303.0187,270.8207,112.6814,0,U,63555,999,244,-.34117E-2,-.87656E-2,0
STARLINK-11626 [DTC],2025-075J,2025-04-20T22:00:01.999584,15.88269532,.0001994,43.0045,303.0129,269.7032,116.0471,0,U,63556,999,244,-.33496E-2,-.867114E-2,0
STARLINK-11668 [DTC],2025-075K,2025-04-20T22:00:01.999584,15.88365911,.0001997,43.0047,303.0084,266.0135,121.6107,0,U,63557,999,245,-.32855E-2,-.85578E-2,0
STARLINK-11657 [DTC],2025-075L,2025-04-20T22:00:01.999584,15.88549290,.0002079,43.0047,303.0008,274.1492,116.2085,0,U,63558,999,245,-.33194E-2,-.871167E-2,0
STARLINK-11606 [DTC],2025-075M,2025-04-20T22:00:01.999584,15.88670539,.0002167,43.0048,302.9962,274.8918,117.5571,0,U,63559,999,245,-.32853E-2,-.867896E-2,0
STARLINK-11592 [DTC],2025-075N,2025-04-20T22:00:01.999584,15.88733590,.0002198,43.0046,302.9923,276.3698,117.3809,0,U,63560,999,245,-.32647E-2,-.86547E-2,0
STARLINK-32953,2025-075P,2025-04-20T22:00:01.999584,15.88236205,.0001927,43.0041,302.9877,262.2398,133.4619,0,U,63561,999,246,-.40499E-2,-.1027296E-1,0
STARLINK-32951,2025-075Q,2025-04-20T22:00:01.999584,15.88417099,.0002321,43.0040,302.9735,268.5766,132.5174,0,U,63562,999,246,-.40726E-2,-.1041107E-1,0
STARLINK-32958,2025-075R,2025-04-20T22:00:01.999584,15.88298505,.0001948,43.0041,302.9826,263.4338,134.1268,0,U,63563,999,246,-.40529E-2,-.1030877E-1,0
STARLINK-32928,2025-075S,2025-04-20T22:00:01.999584,15.88356908,.00019,43.0043,302.9776,264.6337,134.7824,0,U,63564,999,246,-.40487E-2,-.1032614E-1,0
STARLINK-32687,2025-075T,2025-04-20T22:00:01.999584,15.88479268,.0001966,43.0044,302.9691,262.1892,140.8187,0,U,63565,999,246,-.41049E-2,-.1051182E-1,0
STARLINK-32950,2025-075U,2025-04-20T22:00:01.999584,15.89999646,.0002859,43.0043,302.9608,262.1915,143.9475,0,U,63566,999,246,.15478E-2,.509036E-2,0
STARLINK-32954,2025-075V,2025-04-20T22:00:01.999584,15.88665561,.0002141,43.0043,302.9557,268.7495,139.5974,0,U,63567,999,246,-.41188E-2,-.1063341E-1,0
STARLINK-32940,2025-075W,2025-04-20T22:00:01.999584,15.88614291,.0001948,43.0045,302.9591,265.0998,141.8914,0,U,63568,999,246,-.41455E-2,-.1066871E-1,0
